{"type": "FeatureCollection", "features": [ {"type": "Feature", "properties": {"norad_id": 66846, "name": "STARLINK-36055", "group": "last-30-days", "lat": -64.68596125774538, "lon": 151.7209203922676, "alt_km": 321.018803134074, "timestamp": "2025-12-11T13:55:00.915931+00:00", "meta": {"OBJECT_NAME": "STARLINK-36055", "OBJECT_ID": "2025-280AB", "EPOCH": "2025-12-10T18:00:02.000160", "MEAN_MOTION": 15.87905661, "ECCENTRICITY": 0.0003748, "INCLINATION": 69.9925, "RA_OF_ASC_NODE": 204.4985, "ARG_OF_PERICENTER": 269.101, "MEAN_ANOMALY": 319.0072, "EPHEMERIS_TYPE": 0, "CLASSIFICATION_TYPE": "U", "NORAD_CAT_ID": 66846, "ELEMENT_SET_NO": 999, "REV_AT_EPOCH": 258, "BSTAR": -0.0072117, "MEAN_MOTION_DOT": -0.01701487, "MEAN_MOTION_DDOT": 0}, "tle": {"line1": "1 66846U 25280AB  25344.75002315 -.01701487  00000+0 -72117-2 0  9997", "line2": "2 66846  69.9925 204.4985 0003748 269.1010 319.0072 15.87905661  2580"}}, "geometry": {"type": "Point", "coordinates": [151.7209203922676, -64.68596125774538]}}, {"type": "Feature", "properties": {"norad_id": 66847, "name": "STARLINK-36061", "group": "last-30-days", "lat": -63.665966853028365, "lon": 154.69986096156214, "alt_km": 320.8941107979799, "timestamp": "2025-12-11T13:55:00.915941+00:00", "meta": {"OBJECT_NAME": "STARLINK-36061", "OBJECT_ID": "2025-280AC", "EPOCH": "2025-12-10T18:00:02.000160", "MEAN_MOTION": 15.87951104, "ECCENTRICITY": 0.0003761, "INCLINATION": 69.9924, "RA_OF_ASC_NODE": 204.4971, "ARG_OF_PERICENTER": 269.5352, "MEAN_ANOMALY": 320.0966, "EPHEMERIS_TYPE": 0, "CLASSIFICATION_TYPE": "U", "NORAD_CAT_ID": 66847, "ELEMENT_SET_NO": 999, "REV_AT_EPOCH": 253, "BSTAR": -0.0072049, "MEAN_MOTION_DOT": -0.01703472, "MEAN_MOTION_DDOT": 0}, "tle": {"line1": "1 66847U 25280AC  25344.75002315 -.01703472  00000+0 -72049-2 0  9998", "line2": "2 66847  69.9924 204.4971 0003761 269.5352 320.0966 15.87951104  2535"}}, "geometry": {"type": "Point", "coordinates": [154.69986096156214, -63.665966853028365]}}, {"type": "Feature", "properties": {"norad_id": 66848, "name": "STARLINK-36091", "group": "last-30-days", "lat": -18.01314007395808, "lon": 109.1875036573473, "alt_km": 293.26634518926676, "timestamp": "2025-12-11T13:55:00.915951+00:00", "meta": {"OBJECT_NAME": "STARLINK-36091", "OBJECT_ID": "2025-281A", "EPOCH": "2025-12-10T16:00:01.999584", "MEAN_MOTION": 15.95185766, "ECCENTRICITY": 0.00016928, "INCLINATION": 43.0014, "RA_OF_ASC_NODE": 135.3114, "ARG_OF_PERICENTER": 280.935, "MEAN_ANOMALY": 204.3448, "EPHEMERIS_TYPE": 0, "CLASSIFICATION_TYPE": "U", "NORAD_CAT_ID": 66848, "ELEMENT_SET_NO": 999, "REV_AT_EPOCH": 246, "BSTAR": -0.0023663686, "MEAN_MOTION_DOT": -0.00965288, "MEAN_MOTION_DDOT": 0.0002924381}, "tle": {"line1": "1 66848U 25281A   25344.66668981 -.00965288  29244-3 -23664-2 0  9995", "line2": "2 66848  43.0014 135.3114 0001692 280.9350 204.3448 15.95185766  2469"}}, "geometry": {"type": "Point", "coordinates": [109.1875036573473, -18.01314007395808]}}, {"type": "Feature", "properties": {"norad_id": 66849, "name": "STARLINK-36102", "group": "last-30-days", "lat": -16.683612086313587, "lon": 110.84402860035554, "alt_km": 293.0959074113016, "timestamp": "2025-12-11T13:55:00.915961+00:00", "meta": {"OBJECT_NAME": "STARLINK-36102", "OBJECT_ID": "2025-281B", "EPOCH": "2025-12-10T16:00:01.999584", "MEAN_MOTION": 15.95247309, "ECCENTRICITY": 0.0001605, "INCLINATION": 43.0015, "RA_OF_ASC_NODE": 135.306, "ARG_OF_PERICENTER": 279.0783, "MEAN_ANOMALY": 208.0732, "EPHEMERIS_TYPE": 0, "CLASSIFICATION_TYPE": "U", "NORAD_CAT_ID": 66849, "ELEMENT_SET_NO": 999, "REV_AT_EPOCH": 246, "BSTAR": -0.002361761, "MEAN_MOTION_DOT": -0.00966596, "MEAN_MOTION_DDOT": 0.00029334398}, "tle": {"line1": "1 66849U 25281B   25344.66668981 -.00966596  29334-3 -23618-2 0  9998", "line2": "2 66849  43.0015 135.3060 0001605 279.0783 208.0732 15.95247309  2463"}}, "geometry": {"type": "Point", "coordinates": [110.84402860035554, -16.683612086313587]}}, {"type": "Feature", "properties": {"norad_id": 66850, "name": "STARLINK-36105", "group": "last-30-days", "lat": -14.877152969198846, "lon": 113.0344780773367, "alt_km": 292.8572456843558, "timestamp": "2025-12-11T13:55:00.915971+00:00", "meta": {"OBJECT_NAME": "STARLINK-36105", "OBJECT_ID": "2025-281C", "EPOCH": "2025-12-10T16:00:01.999584", "MEAN_MOTION": 15.95340432, "ECCENTRICITY": 0.00015636, "INCLINATION": 43.0013, "RA_OF_ASC_NODE": 135.3001, "ARG_OF_PERICENTER": 273.869, "MEAN_ANOMALY": 215.7585, "EPHEMERIS_TYPE": 0, "CLASSIFICATION_TYPE": "U", "NORAD_CAT_ID": 66850, "ELEMENT_SET_NO": 999, "REV_AT_EPOCH": 246, "BSTAR": -0.0023522064, "MEAN_MOTION_DOT": -0.00967539, "MEAN_MOTION_DDOT": 0.00029414388}, "tle": {"line1": "1 66850U 25281C   25344.66668981 -.00967539  29414-3 -23522-2 0  9991", "line2": "2 66850  43.0013 135.3001 0001563 273.8690 215.7585 15.95340432  2462"}}, "geometry": {"type": "Point", "coordinates": [113.0344780773367, -14.877152969198846]}}, {"type": "Feature", "properties": {"norad_id": 66851, "name": "STARLINK-36094", "group": "last-30-days", "lat": -13.499396904291961, "lon": 114.66372386248639, "alt_km": 292.3907783591003, "timestamp": "2025-12-11T13:55:00.915981+00:00", "meta": {"OBJECT_NAME": "STARLINK-36094", "OBJECT_ID": "2025-281D", "EPOCH": "2025-12-10T16:00:01.999584", "MEAN_MOTION": 15.95416525, "ECCENTRICITY": 0.00016672, "INCLINATION": 43.0013, "RA_OF_ASC_NODE": 135.2954, "ARG_OF_PERICENTER": 281.4235, "MEAN_ANOMALY": 210.094, "EPHEMERIS_TYPE": 0, "CLASSIFICATION_TYPE": "U", "NORAD_CAT_ID": 66851, "ELEMENT_SET_NO": 999, "REV_AT_EPOCH": 246, "BSTAR": -0.0023762503, "MEAN_MOTION_DOT": -0.00981359, "MEAN_MOTION_DDOT": 0.00030208182}, "tle": {"line1": "1 66851U 25281D   25344.66668981 -.00981359  30208-3 -23763-2 0  9998", "line2": "2 66851  43.0013 135.2954 0001667 281.4235 210.0940 15.95416525  2464"}}, "geometry": {"type": "Point", "coordinates": [114.66372386248639, -13.499396904291961]}}, {"type": "Feature", "properties": {"norad_id": 66852, "name": "STARLINK-35992", "group": "last-30-days", "lat": -12.166064246823149, "lon": 116.21104275955847, "alt_km": 292.3188291676488, "timestamp": "2025-12-11T13:55:00.915994+00:00", "meta": {"OBJECT_NAME": "STARLINK-35992", "OBJECT_ID": "2025-281E", "EPOCH": "2025-12-10T16:00:01.999584", "MEAN_MOTION": 15.95490858, "ECCENTRICITY": 0.00016244, "INCLINATION": 43.0015, "RA_OF_ASC_NODE": 135.2908, "ARG_OF_PERICENTER": 275.4518, "MEAN_ANOMALY": 217.8803, "EPHEMERIS_TYPE": 0, "CLASSIFICATION_TYPE": "U", "NORAD_CAT_ID": 66852, "ELEMENT_SET_NO": 999, "REV_AT_EPOCH": 246, "BSTAR": -0.0024039217, "MEAN_MOTION_DOT": -0.00996651, "MEAN_MOTION_DDOT": 0.00031095622}, "tle": {"line1": "1 66852U 25281E   25344.66668981 -.00996651  31096-3 -24039-2 0  9993", "line2": "2 66852  43.0015 135.2908 0001624 275.4518 217.8803 15.95490858  2460"}}, "geometry": {"type": "Point", "coordinates": [116.21104275955847, -12.166064246823149]}}, {"type": "Feature", "properties": {"norad_id": 66853, "name": "STARLINK-35986", "group": "last-30-days", "lat": -10.224610630805286, "lon": 118.41965790915042, "alt_km": 292.02909590743275, "timestamp": "2025-12-11T13:55:00.916194+00:00", "meta": {"OBJECT_NAME": "STARLINK-35986", "OBJECT_ID": "2025-281F", "EPOCH": "2025-12-10T16:00:01.999584", "MEAN_MOTION": 15.95608593, "ECCENTRICITY": 0.00016358, "INCLINATION": 43.0015, "RA_OF_ASC_NODE": 135.2841, "ARG_OF_PERICENTER": 275.5982, "MEAN_ANOMALY": 220.3793, "EPHEMERIS_TYPE": 0, "CLASSIFICATION_TYPE": "U", "NORAD_CAT_ID": 66853, "ELEMENT_SET_NO": 999, "REV_AT_EPOCH": 246, "BSTAR": -0.0024896148, "MEAN_MOTION_DOT": -0.01038402, "MEAN_MOTION_DDOT": 0.00033553081}, "tle": {"line1": "1 66853U 25281F   25344.66668981 -.01038402  33553-3 -24896-2 0  9997", "line2": "2 66853  43.0015 135.2841 0001635 275.5982 220.3793 15.95608593  2469"}}, "geometry": {"type": "Point", "coordinates": [118.41965790915042, -10.224610630805286]}}, {"type": "Feature", "properties": {"norad_id": 66854, "name": "STARLINK-36087", "group": "last-30-days", "lat": -8.372624648753488, "lon": 120.48558189412066, "alt_km": 291.96289555803014, "timestamp": "2025-12-11T13:55:00.916207+00:00", "meta": {"OBJECT_NAME": "STARLINK-36087", "OBJECT_ID": "2025-281G", "EPOCH": "2025-12-10T16:00:01.999584", "MEAN_MOTION": 15.95721326, "ECCENTRICITY": 0.00016261, "INCLINATION": 43.0014, "RA_OF_ASC_NODE": 135.2774, "ARG_OF_PERICENTER": 269.4535, "MEAN_ANOMALY": 229.0445, "EPHEMERIS_TYPE": 0, "CLASSIFICATION_TYPE": "U", "NORAD_CAT_ID": 66854, "ELEMENT_SET_NO": 999, "REV_AT_EPOCH": 246, "BSTAR": -0.0025875366, "MEAN_MOTION_DOT": -0.01085412, "MEAN_MOTION_DDOT": 0.0003641912}, "tle": {"line1": "1 66854U 25281G   25344.66668981 -.01085412  36419-3 -25875-2 0  9993", "line2": "2 66854  43.0014 135.2774 0001626 269.4535 229.0445 15.95721326  2460"}}, "geometry": {"type": "Point", "coordinates": [120.48558189412066, -8.372624648753488]}}, {"type": "Feature", "properties": {"norad_id": 66855, "name": "STARLINK-36090", "group": "last-30-days", "lat": -6.878590820223024, "lon": 122.12934980031186, "alt_km": 291.77221951814226, "timestamp": "2025-12-11T13:55:00.916218+00:00", "meta": {"OBJECT_NAME": "STARLINK-36090", "OBJECT_ID": "2025-281H", "EPOCH": "2025-12-10T16:00:01.999584", "MEAN_MOTION": 15.95808262, "ECCENTRICITY": 0.00015962, "INCLINATION": 43.0015, "RA_OF_ASC_NODE": 135.2723, "ARG_OF_PERICENTER": 269.568, "MEAN_ANOMALY": 230.9611, "EPHEMERIS_TYPE": 0, "CLASSIFICATION_TYPE": "U", "NORAD_CAT_ID": 66855, "ELEMENT_SET_NO": 999, "REV_AT_EPOCH": 246, "BSTAR": -0.0026621288, "MEAN_MOTION_DOT": -0.01121625, "MEAN_MOTION_DDOT": 0.00038702579}, "tle": {"line1": "1 66855U 25281H   25344.66668981 -.01121625  38703-3 -26621-2 0  9999", "line2": "2 66855  43.0015 135.2723 0001596 269.5680 230.9611 15.95808262  2465"}}, "geometry": {"type": "Point", "coordinates": [122.12934980031186, -6.878590820223024]}}]}